{
  "norad_id": 28158,
  "name": "USA 176 (DSP 22)",
  "history": [
    {
      "epoch": "2026-03-28T09:00:38.579328Z",
      "apogee_km": 35752.00284217602,
      "perigee_km": 35731.677426010196,
      "latitude_deg": -4.862328181530117,
      "longitude_deg": -90.59845676745152,
      "height_km": 35741.619226433446,
      "semi_major_axis_km": 42119.97713409311,
      "eccentricity": 0.00024128,
      "inclination_deg": 11.9545,
      "raan_deg": 26.6609,
      "arg_perigee_deg": 290.8784,
      "mean_anomaly_deg": 273.2893,
      "mean_motion_rev_day": 1.00431644
    }
  ]
}